MP01
1 99901U 22999A   23235.54305556 +.00000000  00000-1  00000-0 0    01
2 99901   0.0989 349.4762 0005404 157.2879 223.7092  5.00115454    03
MP02
1 99902U 22999B   23235.54375000 +.00000000  00000-1  00000-0 0    03
2 99902   0.0989 349.4883 0005390 192.4325 249.9270  5.00114564    08
MP03
1 99903U 22999C   23235.54513889 +.00000000  00000-1  00000-0 0    03
2 99903   0.0990 349.4741 0003817 228.1478 275.3461  5.00115978    07
MP04
1 99904U 22999D   23235.54583333 +.00000000  00000-1  00000-0 0    05
2 99904   0.0989 349.4826 0001552 277.3322 287.5767  5.00113254    07
MP05
1 99905U 22999E   23235.54722222 +.00000000  00000-1  00000-0 0    08
2 99905   0.0987 349.5624 0001703  71.1278 197.3452  5.00116298    01
MP06
1 99906U 22999F   23235.54791667 +.00000000  00000-1  00000-0 0    08
2 99906   0.0998 349.1638 0004098 121.1505 208.6309  5.00116764    09